#cP2015  1  3  0  0  0.00000000      96 ORBIT IGb08 HLM  IGS
## 1825 518400.00000000   900.00000000 57025 0.0000000000000
+   32   G01G02G03G04G05G06G07G08G09G10G11G12G13G14G15G16G17
+        G18G19G20G21G22G23G24G25G26G27G28G29G30G31G32  0  0
+          0  0  0  0  0  0  0  0  0  0  0  0  0  0  0  0  0
+          0  0  0  0  0  0  0  0  0  0  0  0  0  0  0  0  0
+          0  0  0  0  0  0  0  0  0  0  0  0  0  0  0  0  0
++         2  3  2  2  2  2  2  2  2  2  2  2  2  2  2  2  2
++         2  2  2  2  2  2  2  2  2  2  2  2  2  2  2  0  0
++         0  0  0  0  0  0  0  0  0  0  0  0  0  0  0  0  0
++         0  0  0  0  0  0  0  0  0  0  0  0  0  0  0  0  0
++         0  0  0  0  0  0  0  0  0  0  0  0  0  0  0  0  0
%c G  cc GPS ccc cccc cccc cccc cccc ccccc ccccc ccccc ccccc
%c cc cc ccc ccc cccc cccc cccc cccc ccccc ccccc ccccc ccccc
%f  1.2500000  1.025000000  0.00000000000  0.000000000000000
%f  0.0000000  0.000000000  0.00000000000  0.000000000000000
%i    0    0    0    0      0      0      0      0         0
%i    0    0    0    0      0      0      0      0         0
/* FINAL ORBIT COMBINATION FROM WEIGHTED AVERAGE OF:        
/* cod emr esa gfz grg jpl mit ngs sio                      
/* REFERENCED TO IGS TIME (IGST) AND TO WEIGHTED MEAN POLE: 
/* PCV:IGS08_1822 OL/AL:FES2004  NONE     Y  ORB:CMB CLK:CMB
*  2015  1  3 19 30  0.00000000
PG01 -13308.031075  18278.296866  13751.663198    -10.536770  4  6  3 128       
PG02  14452.997076   6658.161739 -20985.589310    539.719547  5 14  5 123       
PG03 -21855.568819  13206.089055  -7393.801760    123.689334  6  5  4 110       
PG04 -15796.756054   7999.787533  19406.771386     -5.138340  6  6  3 129       
PG05  24432.538989   -582.463226 -10671.789398   -297.653019  5  6  2 119       
PG06   7611.882876  19880.376093 -15905.336889     42.088025  5  5  4 123       
PG07  -7090.437145  25266.999012  -2457.406123    428.270933  3  6  5 100       
PG08 -14678.633910   -653.310509 -21831.002850     16.985503  8  9  7 147       
PG09  -1202.025025  17426.777910 -20010.983049    -44.776725  4  6  5 107       
PG10  11013.843197  12514.639011 -21124.912823   -157.196220  6  7  5 114       
PG11 -13346.115435  12528.838873  18681.244480   -548.278026  3  5  4 119       
PG12  23726.533881 -10608.095314  -4962.905381    258.581876  5  5  3  94       
PG13  21058.367899  11639.201352  10962.801278    -75.459430  8  8  4 106       
PG14 -13921.389884 -21431.161893   7738.993634    100.222855  6  9  5 117       
PG15  17691.250683  -4286.496140  19360.189231   -224.200451  4  5  3 111       
PG16 -24432.768119   -535.721315 -10907.176566   -167.940593  5  9  3 136       
PG17  13014.824180  21289.570991   9705.180033   -147.883528  7  6  4 113       
PG18   4510.154266 -17568.869793  19781.811166    369.732285  3  7  5 127       
PG19 -19691.755946  -2950.472601  17625.868253   -495.180355  3  3  3 129       
PG20 -14581.944178  17546.298824 -13748.837146    274.649308  5  7  5 115       
PG21   1799.653137 -26105.015530   3654.070652   -404.042951  7  9  4 122       
PG22  -9430.490004 -13524.456299  21057.347468    303.585158  4  7  3 134       
PG23 -11914.559440   9962.418051 -21440.286754    -79.140990  6  6  6 110       
PG24  14226.041986 -15539.083379  16073.407331    -41.170655     2  3  89       
PG25  14205.460414 -16149.179951 -15563.061057      5.505820  5  7  6 113       
PG26  21116.852527  10342.106140  11949.764560   -179.910313  5  6  4  98       
PG27 -22490.548385 -10592.742941   9458.068909     41.754988  5  4  6 119       
PG28   3395.002972  14522.664941  22602.872107    409.914670  4  7  5 112       
PG29   4566.515770 -15499.719888 -21055.475246    583.674344  7  8  5 116       
PG30   -478.654904  25116.332212   8550.234472    -86.255916  4  7  5 109       
PG31  -8377.272349 -17615.691277 -17720.897753    326.182675  4  6  6 113       
PG32 -25692.213896   3801.015657   3897.746524   -255.814721  1  6  3 116       
*  2015  1  3 19 45  0.00000000
PG01 -13232.319519  16561.178483  15847.879990    -10.536492  4  6  3 131       
PG02  14097.833857   9067.145525 -20367.843048    539.721556  5 13  5 110       
PG03 -22587.524635  13226.043871  -4656.541446    123.713239  6  5  4  91       
PG04 -15594.184896   5652.894353  20380.582239     -5.138576  6  6  4 121       
PG05  23268.244693    131.063513 -13023.932190   -297.648649  5  6  1 118       
PG06   7176.922083  21532.234998 -13820.392222     42.096634  5  6  5 128       
PG07  -7253.994296  24771.221855  -5309.904254    428.273625  4  5  5 101       
PG08 -14006.309248  -3123.094436 -22110.273199     16.985889  8  9  6 145       
PG09  -3088.548795  16034.007286 -20952.134530    -44.786230  4  6  4 111       
PG10   8810.412224  13381.096022 -21592.798768   -157.198007  6  7  5 112       
PG11 -13928.383671  10274.801186  19598.454688   -548.280371  3  5  3 116       
PG12  24161.427710 -10556.877031  -2076.685665    258.584166  5  4  4  98       
PG13  21710.885578  12580.097471   8366.209392    -75.462219  8  8  4 108       
PG14 -13054.730558 -20892.569807  10346.334827    100.219516  6  9  4 117       
PG15  19341.883330  -2896.800459  18026.421700   -224.202450  5  6  3 113       
PG16 -23171.113563  -1063.876535 -13329.612262   -167.937639  5  9  3 140       
PG17  11993.425539  20624.743157  12189.595345   -147.885626  7  7  5 117       
PG18   6539.966245 -18218.464046  18530.863871    369.734447  3  6  5 126       
PG19 -20982.288746  -4384.041954  15799.982447   -495.181832  4  3  3 121       
PG20 -15994.753963  17896.756229 -11505.802204    274.653159  6  7  5 116       
PG21   2183.462146 -26243.308858    845.759288   -404.045218  7  9  4 116       
PG22  -7223.129503 -14447.097959  21303.169032    303.588924  4  7  2 131       
PG23 -13802.184622   8391.081401 -21016.922281    -79.143281  5  6  5 106       
PG24  14131.329429 -13583.168746  17841.525030    -41.171297     3  3  87       
PG25  15798.420432 -16595.691519 -13382.033504      5.503652  6  6  6 113       
PG26  21915.816729  11391.679239   9457.316608   -179.922079  6  6  4  96       
PG27 -23081.325784 -11341.881334   6802.709417     41.757395  5  4  6 120       
PG28   1071.303737  15231.969689  22347.889038    409.916902  5  7  5 112       
PG29   6422.347320 -13903.345716 -21672.525841    583.676573  7  8  4 116       
PG30   -912.414027  25863.673593   5860.618482    -86.256244  4  7  5  98       
PG31  -7866.161642 -19509.689817 -15861.134154    326.182316  3  6  6 115       
PG32 -25195.404981   3311.267898   6668.794070   -255.807170  2  6  3 111       
*  2015  1  3 20  0  0.00000000
PG01 -13223.482745  14621.391566  17668.503184    -10.536238  5  5  4 134       
PG02  13866.651545  11394.263574 -19392.329157    539.723578  5 13  5 122       
PG03 -23032.025346  13152.954337  -1839.364675    123.737143  6  5  5 105       
PG04 -15496.097487   3209.990351  20992.294635     -5.138978  6  6  4 129       
PG05  21912.407629   1008.553527 -15154.568562   -297.644121  5  7  2 117       
PG06   6851.517027  22956.240168 -11497.955736     42.105235  6  6  5 118       
PG07  -7406.294067  23965.726938  -8068.828413    428.276975  3  4  5 109       
PG08 -13474.498726  -5630.468165 -22000.354865     16.986010  8  9  6 141       
PG09  -5114.958676  14691.257137 -21532.898408    -44.795773  3  6  4 121       
PG10   6620.633260  14371.611639 -21702.497074   -157.198933  6  7  5 118       
PG11 -14619.153595   7963.118742  20162.236934   -548.282884  3  4  3 120       
PG12  24292.028431 -10404.014582    845.721074    258.586937  5  3  4  87       
PG13  22185.947389  13281.528019   5623.821196    -75.465445  8  8  4 119       
PG14 -11943.692011 -20220.247281  12778.792453    100.216228  6  8  4 119       
PG15  20915.103149  -1681.728604  16383.756241   -224.204737  6  7  3 108       
PG16 -21698.787713  -1758.352281 -15527.545406   -167.934991  5 10  4 145       
PG17  10727.822245  19852.693221  14469.623044   -147.887637  7  7  6 123       
PG18   8400.889448 -18896.484603  16969.408253    369.737162  4  6  5 123       
PG19 -22178.384019  -5598.121952  13704.272315   -495.183444  4  5  3 130       
PG20 -17160.400979  18187.284555  -9066.042855    274.656674  6  7  5 118       
PG21   2539.718912 -26079.881707  -1977.397919   -404.047089  7  9  4 116       
PG22  -5053.055744 -15475.512863  21189.520172    303.592417  4  7  2 137       
PG23 -15707.352761   6959.660000 -20229.740354    -79.145697  5  7  5 125       
PG24  14121.607293 -11443.328159  19300.708958    -41.170838     4  4  91       
PG25  17129.160439 -17018.973485 -10970.049283      5.501538  6  6  6 116       
PG26  22548.547727  12197.428032   6799.969938   -179.934056  6  6  4 103       
PG27 -23460.226734 -11881.556455   4030.810439     41.759772  6  4  6 119       
PG28  -1164.269597  16058.463896  21729.498015    409.919434  4  7  5 118       
PG29   8400.010199 -12378.609570 -21915.720333    583.678769  6  8  4 118       
PG30  -1254.801426  26326.334535   3069.849518    -86.256663  5  7  5 103       
PG31  -7485.720807 -21201.792385 -13721.712012    326.181578  4  6  6 111       
PG32 -24431.183393   2693.923003   9321.271752   -255.799395  2  6  3 106       
EOF
